HELIOS 1B               
1 25977U 99064A   20114.48223316  .00000044  00000-0  12570-4 0  9992
2 25977  98.2734 267.4717 0002151 126.4655 233.6756 14.82472536 98277
TERRA                   
1 25994U 99068A   20114.78426810  .00000001  00000-0  10274-4 0  9994
2 25994  98.2148 189.8222 0000992  90.6743 269.4561 14.57125489 82351
SL-16 R/B               
1 26070U 00006B   20114.46890374 -.00000187  00000-0 -71101-4 0  9992
2 26070  70.9998 288.7956 0017895 214.0439 145.9537 14.15460531 44818
TITAN 4B R/B            
1 26474U 00047B   20113.82410236  .00000090  00000-0  18805-4 0  9992
2 26474  67.9940 228.8136 0060881 259.5879  99.8398 14.95939909 71000
ENVISAT                 
1 27386U 02009A   20114.67622595  .00000011  00000-0  17223-4 0  9998
2 27386  98.1382 124.6017 0001393  88.3923  44.5209 14.37978264950749
IDEFIX & ARIANE 42P R/B 
1 27422U 02021B   20114.50154060 -.00000007  00000-0  13513-4 0  9996
2 27422  98.3461  77.8604 0013056  37.8159 322.3938 14.29286107935423
AQUA                    
1 27424U 02022A   20114.48865274  .00000092  00000-0  30357-4 0  9990
2 27424  98.2056  55.9215 0002234 119.7975  28.0302 14.57116838955916
CZ-4B R/B               
1 27432U 02024C   20114.07480473 -.00000032  00000-0  75619-5 0  9996
2 27432  99.0884 115.3276 0050002 333.6596  71.6225 14.14091775925902
MIDORI II (ADEOS-II)    
1 27597U 02056A   20114.72247871  .00000028  00000-0  28760-4 0  9996
2 27597  98.5153  63.6984 0001801 113.9448 246.1922 14.27442396904000
H-2A R/B                
1 27601U 02056E   20114.38496730  .00000031  00000-0  25761-4 0  9996
2 27601  98.2323 152.9721 0073387  81.9387 289.4744 14.31945962906812
CZ-4B R/B               
1 28059U 03049C   20114.21717759  .00000014  00000-0  15284-4 0  9996
2 28059  98.4876  30.1212 0049158 308.4606  51.2183 14.52596101874813
CZ-2C R/B               
1 28222U 04012C   20114.47134955  .00000442  00000-0  30423-4 0  9995
2 28222  97.6721  76.8857 0046126 216.7320 256.1803 15.10354290877738
SL-16 R/B               
1 28353U 04021B   20114.53204987 -.00000151  00000-0 -54064-4 0  9996
2 28353  71.0013  54.5105 0003288  39.4690 320.6671 14.14225873819388
CZ-4B R/B               
1 28415U 04035C   20114.38585863  .00000404  00000-0  30644-4 0  9995
2 28415  97.6202 156.5486 0051715 178.4061 181.7341 15.06839281855342
CZ-2C R/B               
1 28480U 04046B   20114.17979637 -.00000024  00000-0  58120-5 0  9991
2 28480  98.0849 153.3906 0142508  29.2495  11.0831 14.25720134802564
ARIANE 5 R/B            
1 28499U 04049H   20114.20560118  .00000041  00000-0  12212-4 0  9997
2 28499  98.0503 215.8179 0093556  91.8894 326.9494 14.80021622827964
CZ-2D R/B               
1 28738U 05024B   20114.32048706  .00000255  00000-0  18477-4 0  9990
2 28738  97.3874 138.7088 0012478  22.1259 338.0508 15.12006023813094
SUZAKU (ASTRO-EII)      
1 28773U 05025A   20114.42864067  .00000987  00000-0  43741-4 0  9991
2 28773  31.3834  14.4434 0004374  10.9941 349.0802 15.17500882815572
ALOS (DAICHI)           
1 28931U 06002A   20114.82662075  .00000106  00000-0  29468-4 0  9995
2 28931  97.8429 103.2439 0000634  54.1559 305.9695 14.62700756759712
H-2A R/B                
1 28932U 06002B   20114.54047218  .00000464  00000-0  48530-4 0  9999
2 28932  98.3197 101.4885 0089555 140.5111 332.2889 14.92192044773069
AKARI (ASTRO-F)         
1 28939U 06005A   20114.79105173  .00002151  00000-0  59464-4 0  9994
2 28939  98.2281  82.6429 0094697 154.5832 206.0111 15.34014452772531
RESURS-DK 1             
1 29228U 06021A   20114.02627586  .00000075  00000-0  12964-4 0  9994
2 29228  69.9357 329.1029 0005920 217.4634 142.6114 15.02530429764426
GENESIS 1               
1 29252U 06029A   20114.73408953  .00000218  00000-0  20713-4 0  9992
2 29252  64.5197 120.5507 0017922 179.3263 180.7887 15.18088309759874
CZ-4B R/B               
1 29507U 06046C   20114.07988491  .00000931  00000-0  76961-4 0  9999
2 29507  97.7542 136.0745 0047908 351.3881   8.6515 15.00580650737116
CZ-2C R/B               
1 31114U 07010B   20114.17680837  .00000019  00000-0  27361-4 0  9999
2 31114  98.2687 330.7461 0060873  68.7099 292.0563 14.19317574675163
COSMO-SKYMED 1          
1 31598U 07023A   20114.79435171 -.00000191  00000-0 -17444-4 0  9990
2 31598  97.8894 298.7575 0001508  94.3906 265.7491 14.82150726696732
GENESIS 2               
1 31789U 07028A   20114.19548470  .00000229  00000-0  21673-4 0  9997
2 31789  64.5018 163.7861 0049341 250.8771 108.7006 15.17223372706780
COSMOS 2428             
1 31792U 07029A   20114.74762013 -.00000260  00000-0 -11476-3 0  9990
2 31792  70.9213  27.8457 0006423 155.1695 204.9736 14.12361340661140
SL-16 R/B               
1 31793U 07029B   20114.67947787 -.00000045  00000-0  12215-5 0  9990
2 31793  70.9770   1.4224 0002172 276.6883 148.6405 14.14423534661989
KORONAS-FOTON           
1 33504U 09003A   20114.50575111  .00000211  00000-0  93151-5 0  9998
2 33504  82.4396 277.4888 0020639 108.0807 252.2676 15.15614906619168
H-2A R/B                
1 38341U 12025E   20114.69959941  .00000124  00000-0  22072-4 0  9993
2 38341  98.4923 266.1948 0056441  48.8529 311.7534 14.84015569429336
CUSAT 2 & FALCON 9 R/B  
1 39271U 13055G   20114.17663540  .00004316  00000-0  10432-3 0  9993
2 39271  80.9654 326.4493 0590261 336.5024  21.0162 14.47558198342736
SL-4 R/B                
1 39679U 14021B   20114.78145915  .00000387  00000-0  36968-4 0  9994
2 39679  51.6170   1.1303 0172560 116.2622 245.6195 15.06364782331107
ALOS-2                  
1 39766U 14029A   20114.72852293 -.00000358  00000-0 -41052-4 0  9997
2 39766  97.9192 212.1097 0001615  89.2649 270.8738 14.79470064319609
SL-27 R/B               
1 40354U 14084B   20114.18188295  .00000816  00000-0  21187-4 0  9991
2 40354  74.7363 142.4394 0037847 357.0325   3.0655 15.40144594299623
YAOGAN 29               
1 41038U 15069A   20114.75989832  .00000025  00000-0  10220-4 0  9992
2 41038  98.0078 102.8320 0002268  74.7407 285.4052 14.80444136238186
ASTRO-H (HITOMI)        
1 41337U 16012A   20114.11751844  .00000281  00000-0  15820-4 0  9998
2 41337  31.0070   0.6113 0012562 244.4653 115.4683 14.98673392229199
SHENZHOU-11 MODULE      
1 41868U 16061G   20114.21684411  .00045116  90700-5  12713-3 0  9991
2 41868  42.7872 125.2359 0010957 111.0017 345.4843 15.93508379197243
HXMT (HUIYAN)           
1 42758U 17034A   20114.84965492  .00000135  00000-0  22196-4 0  9999
2 42758  43.0195 335.5401 0010407  37.6628  72.1749 15.08804616157625
CZ-2C R/B               
1 43521U 18054D   20114.43758035  .00000442  00000-0  26192-4 0  9990
2 43521  35.1528 159.0047 0082984 351.9299   8.0078 15.10970118100823
AEOLUS                  
1 43600U 18066A   20114.61970197  .00031202  00000-0  12120-3 0  9999
2 43600  96.7198 121.8370 0007025  83.6028 276.6045 15.87069298 96671
SAOCOM 1A               
1 43641U 18076A   20114.73504413  .00000012  00000-0  80998-5 0  9997
2 43641  97.8893 301.6322 0001457  84.2572 275.8807 14.82152525 83492
CREW DRAGON DEMO-1 DEB  
1 44064U 19011B   20114.59478962  .00016690  00000-0  18006-3 0  9998
2 44064  51.6373 230.1793 0003531 209.5537 150.5367 15.63792565 64324
